{
  "norad_id": 51152,
  "name": "STARLINK-3364",
  "history": [
    {
      "epoch": "2026-03-28T15:29:31.157664Z",
      "apogee_km": 540.5573508129764,
      "perigee_km": 538.9344154885885,
      "latitude_deg": -3.839120617078632e-05,
      "longitude_deg": 165.19517867625402,
      "height_km": 540.6234778663256,
      "semi_major_axis_km": 6917.882883150782,
      "eccentricity": 0.0001173,
      "inclination_deg": 53.2149,
      "raan_deg": 223.638,
      "arg_perigee_deg": 88.7213,
      "mean_anomaly_deg": 271.3913,
      "mean_motion_rev_day": 15.08839184
    }
  ]
}